NORAD_CAT_ID,OBJECT_NAME,OBJECT_TYPE,EPOCH,MEAN_MOTION,ECCENTRICITY,INCLINATION,RA_OF_ASC_NODE,ARG_OF_PERICENTER,MEAN_ANOMALY,BSTAR,MEAN_MOTION_DOT,MEAN_MOTION_DDOT,TLE_LINE0,TLE_LINE1,TLE_LINE2,SEMIMAJOR_AXIS,PERIOD,APOGEE,PERIGEE,DECAYED
52286.0,STARLINK-3802,PAYLOAD,2023-06-29 10:34:26,15.08835893,9.92e-05,53.2155,197.5853,82.8417,277.2688,3.3613e-05,2.47e-06,0.0,0 STARLINK-3802,1 52286U 22041AB  23180.44058497  .00000247  00000-0  33613-4 0  9990,2 52286  53.2155 197.5853 0000992  82.8417 277.2688 15.08835893 67131,6917.893,95.438,540.444,539.072,0.0
52286.0,STARLINK-3802,PAYLOAD,2023-07-01 07:05:14,15.088393,0.0001013,53.2157,189.2595,76.4977,283.6128,4.625e-05,4.48e-06,0.0,0 STARLINK-3802,1 52286U 22041AB  23182.29530199  .00000448  00000-0  46250-4 0  9993,2 52286  53.2157 189.2595 0001013  76.4977 283.6128 15.08839300 67417,6917.883,95.438,540.448,539.047,0.0
52286.0,STARLINK-3802,PAYLOAD,2023-07-02 11:42:10,15.08841384,0.0001046,53.2159,183.9067,76.1925,283.9184,7.1229e-06,-1.74e-06,0.0,0 STARLINK-3802,1 52286U 22041AB  23183.48762149 -.00000174  00000-0  71229-5 0  9999,2 52286  53.2159 183.9067 0001046  76.1925 283.9184 15.08841384 67599,6917.876,95.437,540.465,539.018,0.0
52286.0,STARLINK-3802,PAYLOAD,2023-07-03 16:19:07,15.08835298,0.0001089,53.2162,178.5544,77.8161,282.2953,-7.6273e-06,-4.09e-06,0.0,0 STARLINK-3802,1 52286U 22041AB  23184.67994650 -.00000409  00000-0 -76273-5 0  9991,2 52286  53.2162 178.5544 0001089  77.8161 282.2953 15.08835298 67773,6917.895,95.438,540.513,539.006,0.0
52286.0,STARLINK-3802,PAYLOAD,2023-07-05 08:03:45,15.0883934,0.0001081,53.2159,171.1203,79.9022,280.2092,3.5112e-05,2.71e-06,0.0,0 STARLINK-3802,1 52286U 22041AB  23186.33594630  .00000271  00000-0  35112-4 0  9991,2 52286  53.2159 171.1203 0001081  79.9022 280.2092 15.08839340 68024,6917.882,95.438,540.495,539.0,0.0
52286.0,STARLINK-3802,PAYLOAD,2023-07-05 22:22:14,15.08833091,0.0001104,53.2161,168.4442,82.0839,278.0278,1.3796e-05,-6.8e-07,0.0,0 STARLINK-3802,1 52286U 22041AB  23186.93211271 -.00000068  00000-0  13796-4 0  9993,2 52286  53.2161 168.4442 0001104  82.0839 278.0278 15.08833091 68116,6917.902,95.438,540.53,539.003,0.0
52286.0,STARLINK-3802,PAYLOAD,2023-07-06 15:51:28,15.08839321,0.000113,53.2162,165.1734,83.2259,276.8861,6.2101e-05,7.01e-06,0.0,0 STARLINK-3802,1 52286U 22041AB  23187.66074936  .00000701  00000-0  62101-4 0  9996,2 52286  53.2162 165.1734 0001130  83.2259 276.8861 15.08839321 68221,6917.882,95.438,540.529,538.966,0.0
52286.0,STARLINK-3802,PAYLOAD,2023-07-07 04:34:33,15.08846606,0.0001123,53.216,162.7942,82.5924,277.5196,0.00010079,1.317e-05,0.0,0 STARLINK-3802,1 52286U 22041AB  23188.19066336  .00001317  00000-0  10079-3 0  9990,2 52286  53.2160 162.7942 0001123  82.5924 277.5196 15.08846606 68308,6917.86,95.437,540.502,538.948,0.0
52286.0,STARLINK-3802,PAYLOAD,2023-07-08 04:25:20,15.08837694,0.0001166,53.2156,158.3331,90.0621,270.0505,5.3414e-05,5.62e-06,0.0,0 STARLINK-3802,1 52286U 22041AB  23189.18426949  .00000562  00000-0  53414-4 0  9992,2 52286  53.2156 158.3331 0001166  90.0621 270.0505 15.08837694 68456,6917.887,95.438,540.559,538.946,0.0
52286.0,STARLINK-3802,PAYLOAD,2023-07-09 04:16:08,15.088292,0.0001167,53.2152,153.8726,96.2899,263.8226,8.2752e-05,1.029e-05,0.0,0 STARLINK-3802,1 52286U 22041AB  23190.17787508  .00001029  00000-0  82752-4 0  9990,2 52286  53.2152 153.8726 0001167  96.2899 263.8226 15.08829200 68607,6917.913,95.438,540.586,538.971,0.0
52286.0,STARLINK-3802,PAYLOAD,2023-07-10 04:06:55,15.08837589,0.0001162,53.2158,149.4129,94.8404,265.272,3.4437e-05,2.6e-06,0.0,0 STARLINK-3802,1 52286U 22041AB  23191.17147209  .00000260  00000-0  34437-4 0  9992,2 52286  53.2158 149.4129 0001162  94.8404 265.2720 15.08837589 68752,6917.888,95.438,540.557,538.949,0.0
52286.0,STARLINK-3802,PAYLOAD,2023-07-11 07:08:28,15.08841614,0.0001121,53.216,144.3577,93.6287,266.4833,0.00010682,1.413e-05,0.0,0 STARLINK-3802,1 52286U 22041AB  23192.29754922  .00001413  00000-0  10682-3 0  9998,2 52286  53.2160 144.3577 0001121  93.6287 266.4833 15.08841614 68928,6917.875,95.437,540.516,538.965,0.0
52286.0,STARLINK-3802,PAYLOAD,2023-07-12 03:48:29,15.08840451,0.0001107,53.2162,140.4922,91.8932,268.2187,4.7531e-05,4.69e-06,0.0,0 STARLINK-3802,1 52286U 22041AB  23193.15867340  .00000469  00000-0  47531-4 0  9997,2 52286  53.2162 140.4922 0001107  91.8932 268.2187 15.08840451 69057,6917.879,95.438,540.51,538.978,0.0
52286.0,STARLINK-3802,PAYLOAD,2023-07-13 05:14:39,15.08840585,0.0001124,53.2165,135.7336,83.5158,276.5962,-5.8197e-06,-3.8e-06,0.0,0 STARLINK-3802,1 52286U 22041AB  23194.21851648 -.00000380  00000-0 -58197-5 0  9994,2 52286  53.2165 135.7336 0001124  83.5158 276.5962 15.08840585 69212,6917.879,95.438,540.521,538.966,0.0
52286.0,STARLINK-3802,PAYLOAD,2023-07-15 01:45:27,15.08840551,0.0001142,53.2162,127.4084,91.4793,268.633,0.00010382,1.365e-05,0.0,0 STARLINK-3802,1 52286U 22041AB  23196.07323504  .00001365  00000-0  10382-3 0  9999,2 52286  53.2162 127.4084 0001142  91.4793 268.6330 15.08840551 69494,6917.879,95.438,540.534,538.954,0.0
52286.0,STARLINK-3802,PAYLOAD,2023-07-16 01:36:15,15.08838022,0.0001117,53.2163,122.9478,92.8159,267.2961,-1.0244e-05,-4.51e-06,0.0,0 STARLINK-3802,1 52286U 22041AB  23197.06684175 -.00000451  00000-0 -10244-4 0  9998,2 52286  53.2163 122.9478 0001117  92.8159 267.2961 15.08838022 69647,6917.886,95.438,540.524,538.979,0.0
52286.0,STARLINK-3802,PAYLOAD,2023-07-17 23:42:25,15.0883905,0.0001195,53.2164,114.324,84.9892,275.1237,5.8213e-05,6.39e-06,0.0,0 STARLINK-3802,1 52286U 22041AB  23198.98779896  .00000639  00000-0  58213-4 0  9999,2 52286  53.2164 114.3240 0001195  84.9892 275.1237 15.08839050 69930,6917.883,95.438,540.575,538.922,0.0
52286.0,STARLINK-3802,PAYLOAD,2023-07-18 20:22:27,15.08836107,0.0001151,53.2169,110.4572,81.8112,278.3011,-7.1979e-05,-1.433e-05,0.0,0 STARLINK-3802,1 52286U 22041AB  23199.84892685 -.00001433  00000-0 -71979-4 0  9996,2 52286  53.2169 110.4572 0001151  81.8112 278.3011 15.08836107 70064,6917.892,95.438,540.554,538.961,0.0
52286.0,STARLINK-3802,PAYLOAD,2023-07-19 13:51:42,15.08878174,0.0001042,53.2162,107.1849,126.1622,233.9467,-0.00057256,-9.398e-05,0.0,0 STARLINK-3802,1 52286U 22041AB  23200.57757138 -.00009398  00000-0 -57256-3 0  9991,2 52286  53.2162 107.1849 0001042 126.1622 233.9467 15.08878174 70179,6917.764,95.435,540.35,538.908,0.0
52286.0,STARLINK-3802,PAYLOAD,2023-07-19 20:13:14,15.08843932,0.0001206,53.2164,105.9955,122.0038,238.1071,-0.0001005,-1.887e-05,0.0,0 STARLINK-3802,1 52286U 22041AB  23200.84252556 -.00001887  00000-0 -10050-3 0  9991,2 52286  53.2164 105.9955 0001206 122.0038 238.1071 15.08843932 70210,6917.868,95.437,540.568,538.899,0.0
52286.0,STARLINK-3802,PAYLOAD,2023-07-20 20:04:01,15.08859827,0.0001266,53.2166,101.5408,43.6817,316.4275,-0.00025697,-4.377e-05,0.0,0 STARLINK-3802,1 52286U 22041AB  23201.83612636 -.00004377  00000-0 -25697-3 0  9990,2 52286  53.2166 101.5408 0001266  43.6817 316.4275 15.08859827 70368,6917.82,95.436,540.561,538.809,0.0
52286.0,STARLINK-3802,PAYLOAD,2023-07-21 00:50:10,15.08836962,9.46e-05,53.2165,100.647,80.0313,280.0786,0.00013501,1.861e-05,0.0,0 STARLINK-3802,1 52286U 22041AB  23202.03484592  .00001861  00000-0  13501-3 0  9995,2 52286  53.2165 100.6470 0000946  80.0313 280.0786 15.08836962 70397,6917.89,95.438,540.409,539.1,0.0
52286.0,STARLINK-3802,PAYLOAD,2023-07-24 01:57:55,15.08836047,0.0001319,53.2172,86.9663,79.7684,280.3457,-5.2594e-05,-1.125e-05,0.0,0 STARLINK-3802,1 52286U 22041AB  23205.08189502 -.00001125  00000-0 -52594-4 0  9997,2 52286  53.2172  86.9663 0001319  79.7684 280.3457 15.08836047 69633,6917.892,95.438,540.67,538.845,0.0
52286.0,STARLINK-3802,PAYLOAD,2023-07-25 01:48:41,15.0885143,0.0001456,53.2178,82.5085,95.4459,264.6699,2.2758e-05,7.4e-07,0.0,0 STARLINK-3802,1 52286U 22041AB  23206.07548263  .00000074  00000-0  22758-4 0  9999,2 52286  53.2178  82.5085 0001456  95.4459 264.6699 15.08851430 69788,6917.845,95.437,540.718,538.703,0.0
52286.0,STARLINK-3802,PAYLOAD,2023-07-25 20:53:20,15.088363,0.0001536,53.2186,78.9402,106.3638,253.7523,3.0568e-05,1.98e-06,0.0,0 STARLINK-3802,1 52286U 22041AB  23206.87037450  .00000198  00000-0  30568-4 0  9993,2 52286  53.2186  78.9402 0001536 106.3638 253.7523 15.08836300 69907,6917.892,95.438,540.819,538.694,0.0
52286.0,STARLINK-3802,PAYLOAD,2023-07-27 01:30:15,15.08855067,0.0001263,53.2173,73.5858,101.592,258.5214,5.456e-05,5.81e-06,0.0,0 STARLINK-3802,1 52286U 22041AB  23208.06268052  .00000581  00000-0  54560-4 0  9994,2 52286  53.2173  73.5858 0001263 101.5920 258.5214 15.08855067 71305,6917.834,95.437,540.573,538.826,0.0
52286.0,STARLINK-3802,PAYLOAD,2023-07-27 07:51:48,15.08845853,0.0001059,53.2167,72.393,75.8773,284.2337,-2.7807e-05,-7.3e-06,0.0,0 STARLINK-3802,1 52286U 22041AB  23208.32764866 -.00000730  00000-0 -27807-4 0  9999,2 52286  53.2167  72.3930 0001059  75.8773 284.2337 15.08845853 71346,6917.862,95.437,540.46,538.995,0.0
52286.0,STARLINK-3802,PAYLOAD,2023-07-27 17:24:09,15.08827475,0.0001589,53.2179,70.6148,93.2874,266.83,-4.4658e-05,-9.98e-06,0.0,0 STARLINK-3802,1 52286U 22041AB  23208.72510443 -.00000998  00000-0 -44658-4 0  9992,2 52286  53.2179  70.6148 0001589  93.2874 266.8300 15.08827475 71408,6917.919,95.438,540.883,538.684,0.0
52286.0,STARLINK-3802,PAYLOAD,2023-07-28 14:04:09,15.08845946,0.0001062,53.2168,66.7457,78.5549,281.5562,-5.6648e-05,-1.189e-05,0.0,0 STARLINK-3802,1 52286U 22041AB  23209.58621868 -.00001189  00000-0 -56648-4 0  9996,2 52286  53.2168  66.7457 0001062  78.5549 281.5562 15.08845946 70312,6917.862,95.437,540.462,538.993,0.0
52286.0,STARLINK-3802,PAYLOAD,2023-07-28 17:14:55,15.08844594,8.5e-05,53.2169,66.1498,82.1771,277.9318,-3.0008e-05,-7.65e-06,0.0,0 STARLINK-3802,1 52286U 22041AB  23209.71869620 -.00000765  00000-0 -30008-4 0  9992,2 52286  53.2169  66.1498 0000850  82.1771 277.9318 15.08844594 71557,6917.866,95.437,540.319,539.143,0.0
